{
  "norad_id": 62459,
  "name": "SDX01",
  "history": [
    {
      "epoch": "2026-04-10T04:18:16.744608Z",
      "apogee_km": 385.90198257094926,
      "perigee_km": 379.362290585138,
      "latitude_deg": 3.441133661858739e-05,
      "longitude_deg": 43.539838700922076,
      "height_km": 382.19421476818843,
      "semi_major_axis_km": 6760.769136578043,
      "eccentricity": 0.00048365,
      "inclination_deg": 54.9954,
      "raan_deg": 306.5265,
      "arg_perigee_deg": 61.8738,
      "mean_anomaly_deg": 298.2789,
      "mean_motion_rev_day": 15.61739529
    },
    {
      "epoch": "2026-04-11T20:14:22.350336Z",
      "apogee_km": 385.48386372225923,
      "perigee_km": 378.90876354142165,
      "latitude_deg": 7.690375570867326e-05,
      "longitude_deg": 155.12084014901535,
      "height_km": 381.76938121103404,
      "semi_major_axis_km": 6760.333313631841,
      "eccentricity": 0.0004863,
      "inclination_deg": 54.9949,
      "raan_deg": 298.7709,
      "arg_perigee_deg": 62.2564,
      "mean_anomaly_deg": 297.8968,
      "mean_motion_rev_day": 15.61890554
    },
    {
      "epoch": "2026-04-13T06:01:40.021824Z",
      "apogee_km": 385.20065104923015,
      "perigee_km": 378.56109669387206,
      "latitude_deg": 3.7036396079082234e-05,
      "longitude_deg": 0.34614678409360244,
      "height_km": 381.44545380023897,
      "semi_major_axis_km": 6760.017873871551,
      "eccentricity": 0.00049109,
      "inclination_deg": 54.9947,
      "raan_deg": 292.2075,
      "arg_perigee_deg": 62.3843,
      "mean_anomaly_deg": 297.7694,
      "mean_motion_rev_day": 15.61999878
    },
    {
      "epoch": "2026-04-14T20:25:15.267360Z",
      "apogee_km": 384.9358776153722,
      "perigee_km": 378.2045611663025,
      "latitude_deg": 2.583742557800159e-05,
      "longitude_deg": 135.41323474477903,
      "height_km": 381.13822627933206,
      "semi_major_axis_km": 6759.707219390837,
      "eccentricity": 0.0004979,
      "inclination_deg": 54.994,
      "raan_deg": 284.7482,
      "arg_perigee_deg": 62.8609,
      "mean_anomaly_deg": 297.2937,
      "mean_motion_rev_day": 15.62107556
    },
    {
      "epoch": "2026-04-15T19:27:19.770336Z",
      "apogee_km": 384.77054117976604,
      "perigee_km": 377.9866913073038,
      "latitude_deg": 2.346368461049975e-05,
      "longitude_deg": 144.4721757826049,
      "height_km": 380.93491525023757,
      "semi_major_axis_km": 6759.515616243534,
      "eccentricity": 0.0005018,
      "inclination_deg": 54.9941,
      "raan_deg": 280.2719,
      "arg_perigee_deg": 62.8665,
      "mean_anomaly_deg": 297.2885,
      "mean_motion_rev_day": 15.62173975
    },
    {
      "epoch": "2026-04-16T20:01:28.673760Z",
      "apogee_km": 384.6004783109511,
      "perigee_km": 377.7451862790376,
      "latitude_deg": 2.6671257378301193e-06,
      "longitude_deg": 130.1507469363177,
      "height_km": 380.72223598187463,
      "semi_major_axis_km": 6759.309832294994,
      "eccentricity": 0.0005071,
      "inclination_deg": 54.9942,
      "raan_deg": 275.4966,
      "arg_perigee_deg": 63.0438,
      "mean_anomaly_deg": 297.1118,
      "mean_motion_rev_day": 15.62245315
    },
    {
      "epoch": "2026-04-17T22:07:41.089440Z",
      "apogee_km": 384.3856328294478,
      "perigee_km": 377.4754325467293,
      "latitude_deg": -4.059097716886044e-05,
      "longitude_deg": 92.45335564097302,
      "height_km": 380.4596942366117,
      "semi_major_axis_km": 6759.067532688088,
      "eccentricity": 0.00051118,
      "inclination_deg": 54.9944,
      "raan_deg": 270.423,
      "arg_perigee_deg": 62.8984,
      "mean_anomaly_deg": 297.2575,
      "mean_motion_rev_day": 15.62329321
    },
    {
      "epoch": "2026-04-18T19:37:25.860288Z",
      "apogee_km": 384.1682893687621,
      "perigee_km": 377.1594128861425,
      "latitude_deg": 8.77283213761361e-06,
      "longitude_deg": 124.95584501111621,
      "height_km": 380.1808267890518,
      "semi_major_axis_km": 6758.800851127452,
      "eccentricity": 0.0005185,
      "inclination_deg": 54.9946,
      "raan_deg": 266.2448,
      "arg_perigee_deg": 63.0887,
      "mean_anomaly_deg": 297.0681,
      "mean_motion_rev_day": 15.62421789
    },
    {
      "epoch": "2026-04-19T20:11:19.374144Z",
      "apogee_km": 383.84389649505465,
      "perigee_km": 376.80698540153935,
      "latitude_deg": -1.4864852082166703e-05,
      "longitude_deg": 110.69810993365316,
      "height_km": 379.82562920822096,
      "semi_major_axis_km": 6758.462440948297,
      "eccentricity": 0.0005206,
      "inclination_deg": 54.9947,
      "raan_deg": 261.4689,
      "arg_perigee_deg": 62.8969,
      "mean_anomaly_deg": 297.26,
      "mean_motion_rev_day": 15.62539141
    },
    {
      "epoch": "2026-04-20T13:04:33.815712Z",
      "apogee_km": 383.7052369472094,
      "perigee_km": 376.5297278330763,
      "latitude_deg": -2.418832980458905e-05,
      "longitude_deg": -146.58860977433426,
      "height_km": 379.5256472041995,
      "semi_major_axis_km": 6758.254482390143,
      "eccentricity": 0.00053087,
      "inclination_deg": 54.9948,
      "raan_deg": 258.1859,
      "arg_perigee_deg": 61.8077,
      "mean_anomaly_deg": 298.3497,
      "mean_motion_rev_day": 15.62611263
    },
    {
      "epoch": "2026-04-21T19:46:40.956960Z",
      "apogee_km": 383.2684671415691,
      "perigee_km": 376.0551926705266,
      "latitude_deg": 3.134626294573996e-05,
      "longitude_deg": 105.65028487104328,
      "height_km": 379.1102057193126,
      "semi_major_axis_km": 6757.798829906047,
      "eccentricity": 0.0005337,
      "inclination_deg": 54.9944,
      "raan_deg": 252.2154,
      "arg_perigee_deg": 62.6914,
      "mean_anomaly_deg": 297.4668,
      "mean_motion_rev_day": 15.62769307
    },
    {
      "epoch": "2026-04-22T18:48:09.235008Z",
      "apogee_km": 383.00064381531683,
      "perigee_km": 375.7120115120988,
      "latitude_deg": -1.054536222271672e-05,
      "longitude_deg": 114.85894462657107,
      "height_km": 378.7847185900861,
      "semi_major_axis_km": 6757.4933276637075,
      "eccentricity": 0.0005393,
      "inclination_deg": 54.9945,
      "raan_deg": 247.7375,
      "arg_perigee_deg": 62.644,
      "mean_anomaly_deg": 297.5147,
      "mean_motion_rev_day": 15.62875286
    },
    {
      "epoch": "2026-04-23T13:13:15.750336Z",
      "apogee_km": 382.8187273886924,
      "perigee_km": 375.38211731589763,
      "latitude_deg": 5.817856087213442e-06,
      "longitude_deg": -165.7573126332278,
      "height_km": 378.4457858649074,
      "semi_major_axis_km": 6757.237422352295,
      "eccentricity": 0.00055027,
      "inclination_deg": 54.9942,
      "raan_deg": 244.1548,
      "arg_perigee_deg": 61.7919,
      "mean_anomaly_deg": 298.3675,
      "mean_motion_rev_day": 15.62964069
    },
    {
      "epoch": "2026-04-24T19:54:57.939264Z",
      "apogee_km": 382.3744075230643,
      "perigee_km": 374.8838565890683,
      "latitude_deg": -3.2224103642421626e-05,
      "longitude_deg": 86.58347111458222,
      "height_km": 378.0099181647024,
      "semi_major_axis_km": 6756.766132056066,
      "eccentricity": 0.0005543,
      "inclination_deg": 54.994,
      "raan_deg": 238.182,
      "arg_perigee_deg": 62.6262,
      "mean_anomaly_deg": 297.534,
      "mean_motion_rev_day": 15.63127599
    },
    {
      "epoch": "2026-04-25T18:56:06.209664Z",
      "apogee_km": 382.0165254785152,
      "perigee_km": 374.3886181019634,
      "latitude_deg": -2.0398853745454314e-05,
      "longitude_deg": 95.87376389170713,
      "height_km": 377.511717540157,
      "semi_major_axis_km": 6756.339571790239,
      "eccentricity": 0.0005645,
      "inclination_deg": 54.9944,
      "raan_deg": 233.7021,
      "arg_perigee_deg": 61.9464,
      "mean_anomaly_deg": 298.2145,
      "mean_motion_rev_day": 15.63275633
    },
    {
      "epoch": "2026-04-26T19:29:10.133376Z",
      "apogee_km": 381.5883429131618,
      "perigee_km": 373.8655797017118,
      "latitude_deg": 5.608118172901096e-05,
      "longitude_deg": 81.81999135846193,
      "height_km": 377.00134992331,
      "semi_major_axis_km": 6755.8639613074365,
      "eccentricity": 0.00057156,
      "inclination_deg": 54.9941,
      "raan_deg": 228.9229,
      "arg_perigee_deg": 61.738,
      "mean_anomaly_deg": 298.4236,
      "mean_motion_rev_day": 15.63440717
    },
    {
      "epoch": "2026-04-27T18:30:01.682784Z",
      "apogee_km": 381.2069495993446,
      "perigee_km": 373.3814580928092,
      "latitude_deg": 5.395031429664644e-05,
      "longitude_deg": 91.17883690411425,
      "height_km": 376.55799627719455,
      "semi_major_axis_km": 6755.431203846077,
      "eccentricity": 0.0005792,
      "inclination_deg": 54.9944,
      "raan_deg": 224.4417,
      "arg_perigee_deg": 61.9667,
      "mean_anomaly_deg": 298.1958,
      "mean_motion_rev_day": 15.63590952
    },
    {
      "epoch": "2026-04-28T19:02:49.820352Z",
      "apogee_km": 380.9936863035027,
      "perigee_km": 373.0509699654822,
      "latitude_deg": 3.502000135471494e-05,
      "longitude_deg": 77.18925392277927,
      "height_km": 376.31920091987917,
      "semi_major_axis_km": 6755.159328134492,
      "eccentricity": 0.0005879,
      "inclination_deg": 54.9946,
      "raan_deg": 219.6608,
      "arg_perigee_deg": 62.9559,
      "mean_anomaly_deg": 297.208,
      "mean_motion_rev_day": 15.63685348
    },
    {
      "epoch": "2026-04-29T18:03:28.790784Z",
      "apogee_km": 380.5871825596787,
      "perigee_km": 372.69760023053004,
      "latitude_deg": -3.745481914650334e-05,
      "longitude_deg": 86.60050597963212,
      "height_km": 375.9839883329264,
      "semi_major_axis_km": 6754.7793913951045,
      "eccentricity": 0.000584,
      "inclination_deg": 54.9945,
      "raan_deg": 215.1795,
      "arg_perigee_deg": 63.4856,
      "mean_anomaly_deg": 296.6781,
      "mean_motion_rev_day": 15.63817279
    }
  ]
}